[
  {
    "OBJECT_NAME": "STARLINK-1994",
    "OBJECT_ID": "21009AT",
    "EPOCH": "2025-11-11T01:16:34.253472",
    "MEAN_MOTION": 15.06425318,
    "ECCENTRICITY": 0.0001463,
    "INCLINATION": 53.0545,
    "RA_OF_ASC_NODE": 194.1985,
    "ARG_OF_PERICENTER": 83.8112,
    "MEAN_ANOMALY": 276.3044,
    "EPHEMERIS_TYPE": 0,
    "CLASSIFICATION_TYPE": "U",
    "NORAD_CAT_ID": 47589,
    "ELEMENT_SET_NO": 999,
    "REV_AT_EPOCH": 26291,
    "BSTAR": 0.00054196,
    "MEAN_MOTION_DOT": 7.806e-05,
    "MEAN_MOTION_DDOT": 0.0,
    "TLE_LINE1": "1 47589U 21009AT  25315.05317423  .00007806  00000+0  54196-3 0  9994",
    "TLE_LINE2": "2 47589  53.0545 194.1985 0001463  83.8112 276.3044 15.06425318262912",
    "COMMENT": "Grouped by shell and plane from TLE"
  },
  {
    "OBJECT_NAME": "STARLINK-2543",
    "OBJECT_ID": "21036C",
    "EPOCH": "2025-11-11T02:01:03.941760",
    "MEAN_MOTION": 15.06409308,
    "ECCENTRICITY": 0.0001666,
    "INCLINATION": 53.0529,
    "RA_OF_ASC_NODE": 199.148,
    "ARG_OF_PERICENTER": 66.2927,
    "MEAN_ANOMALY": 293.8236,
    "EPHEMERIS_TYPE": 0,
    "CLASSIFICATION_TYPE": "U",
    "NORAD_CAT_ID": 48278,
    "ELEMENT_SET_NO": 999,
    "REV_AT_EPOCH": 25120,
    "BSTAR": 0.00090439,
    "MEAN_MOTION_DOT": 0.00013218,
    "MEAN_MOTION_DDOT": 0.0,
    "TLE_LINE1": "1 48278U 21036C   25315.08407340  .00013218  00000+0  90439-3 0  9995",
    "TLE_LINE2": "2 48278  53.0529 199.1480 0001666  66.2927 293.8236 15.06409308251207",
    "COMMENT": "Grouped by shell and plane from TLE"
  },
  {
    "OBJECT_NAME": "STARLINK-3096",
    "OBJECT_ID": "21082B",
    "EPOCH": "2025-11-11T01:26:39.145056",
    "MEAN_MOTION": 14.9833066,
    "ECCENTRICITY": 0.0002659,
    "INCLINATION": 69.9992,
    "RA_OF_ASC_NODE": 193.5532,
    "ARG_OF_PERICENTER": 269.2203,
    "MEAN_ANOMALY": 90.8651,
    "EPHEMERIS_TYPE": 0,
    "CLASSIFICATION_TYPE": "U",
    "NORAD_CAT_ID": 49131,
    "ELEMENT_SET_NO": 999,
    "REV_AT_EPOCH": 22919,
    "BSTAR": 0.0,
    "MEAN_MOTION_DOT": -4.753e-05,
    "MEAN_MOTION_DDOT": 0.0,
    "TLE_LINE1": "1 49131U 21082B   25315.06017529 -.00004753  00000+0 -39086-3 0  9996",
    "TLE_LINE2": "2 49131  69.9992 193.5532 0002659 269.2203  90.8651 14.98330660229190",
    "COMMENT": "Grouped by shell and plane from TLE"
  },
  {
    "OBJECT_NAME": "STARLINK-3073",
    "OBJECT_ID": "21082F",
    "EPOCH": "2025-11-11T01:20:38.997024",
    "MEAN_MOTION": 14.98313804,
    "ECCENTRICITY": 0.0003708,
    "INCLINATION": 69.9989,
    "RA_OF_ASC_NODE": 193.553,
    "ARG_OF_PERICENTER": 277.6079,
    "MEAN_ANOMALY": 82.4659,
    "EPHEMERIS_TYPE": 0,
    "CLASSIFICATION_TYPE": "U",
    "NORAD_CAT_ID": 49135,
    "ELEMENT_SET_NO": 999,
    "REV_AT_EPOCH": 22920,
    "BSTAR": 0.00017473,
    "MEAN_MOTION_DOT": 1.992e-05,
    "MEAN_MOTION_DDOT": 0.0,
    "TLE_LINE1": "1 49135U 21082F   25315.05600691  .00001992  00000+0  17473-3 0  9993",
    "TLE_LINE2": "2 49135  69.9989 193.5530 0003708 277.6079  82.4659 14.98313804229206",
    "COMMENT": "Grouped by shell and plane from TLE"
  },
  {
    "OBJECT_NAME": "STARLINK-3057",
    "OBJECT_ID": "21082K",
    "EPOCH": "2025-11-11T02:44:44.636928",
    "MEAN_MOTION": 14.98334677,
    "ECCENTRICITY": 0.0003046,
    "INCLINATION": 69.9988,
    "RA_OF_ASC_NODE": 193.4133,
    "ARG_OF_PERICENTER": 271.0983,
    "MEAN_ANOMALY": 88.9827,
    "EPHEMERIS_TYPE": 0,
    "CLASSIFICATION_TYPE": "U",
    "NORAD_CAT_ID": 49139,
    "ELEMENT_SET_NO": 999,
    "REV_AT_EPOCH": 22920,
    "BSTAR": 9.2508e-05,
    "MEAN_MOTION_DOT": 1.011e-05,
    "MEAN_MOTION_DDOT": 0.0,
    "TLE_LINE1": "1 49139U 21082K   25315.11440552  .00001011  00000+0  92508-4 0  9997",
    "TLE_LINE2": "2 49139  69.9988 193.4133 0003046 271.0983  88.9827 14.98334677229203",
    "COMMENT": "Grouped by shell and plane from TLE"
  },
  {
    "OBJECT_NAME": "STARLINK-3119",
    "OBJECT_ID": "21082R",
    "EPOCH": "2025-11-11T02:02:41.165952",
    "MEAN_MOTION": 14.98336628,
    "ECCENTRICITY": 0.0003011,
    "INCLINATION": 69.999,
    "RA_OF_ASC_NODE": 193.4835,
    "ARG_OF_PERICENTER": 269.8739,
    "MEAN_ANOMALY": 90.2075,
    "EPHEMERIS_TYPE": 0,
    "CLASSIFICATION_TYPE": "U",
    "NORAD_CAT_ID": 49145,
    "ELEMENT_SET_NO": 999,
    "REV_AT_EPOCH": 22919,
    "BSTAR": 9.424800000000001e-05,
    "MEAN_MOTION_DOT": 1.032e-05,
    "MEAN_MOTION_DDOT": 0.0,
    "TLE_LINE1": "1 49145U 21082R   25315.08519868  .00001032  00000+0  94248-4 0  9993",
    "TLE_LINE2": "2 49145  69.9990 193.4835 0003011 269.8739  90.2075 14.98336628229195",
    "COMMENT": "Grouped by shell and plane from TLE"
  },
  {
    "OBJECT_NAME": "STARLINK-3071",
    "OBJECT_ID": "21082T",
    "EPOCH": "2025-11-11T05:32:58.602912",
    "MEAN_MOTION": 14.98340883,
    "ECCENTRICITY": 0.0002537,
    "INCLINATION": 69.9994,
    "RA_OF_ASC_NODE": 193.133,
    "ARG_OF_PERICENTER": 270.1704,
    "MEAN_ANOMALY": 89.9164,
    "EPHEMERIS_TYPE": 0,
    "CLASSIFICATION_TYPE": "U",
    "NORAD_CAT_ID": 49147,
    "ELEMENT_SET_NO": 999,
    "REV_AT_EPOCH": 22922,
    "BSTAR": 0.00013909,
    "MEAN_MOTION_DOT": 1.567e-05,
    "MEAN_MOTION_DDOT": 0.0,
    "TLE_LINE1": "1 49147U 21082T   25315.23123383  .00001567  00000+0  13909-3 0  9992",
    "TLE_LINE2": "2 49147  69.9994 193.1330 0002537 270.1704  89.9164 14.98340883229223",
    "COMMENT": "Grouped by shell and plane from TLE"
  },
  {
    "OBJECT_NAME": "STARLINK-3102",
    "OBJECT_ID": "21082X",
    "EPOCH": "2025-11-11T01:50:40.513056",
    "MEAN_MOTION": 14.98340927,
    "ECCENTRICITY": 0.0002901,
    "INCLINATION": 70.0,
    "RA_OF_ASC_NODE": 193.5119,
    "ARG_OF_PERICENTER": 272.0792,
    "MEAN_ANOMALY": 88.0035,
    "EPHEMERIS_TYPE": 0,
    "CLASSIFICATION_TYPE": "U",
    "NORAD_CAT_ID": 49151,
    "ELEMENT_SET_NO": 999,
    "REV_AT_EPOCH": 23039,
    "BSTAR": 0.0001936,
    "MEAN_MOTION_DOT": 2.218e-05,
    "MEAN_MOTION_DDOT": 0.0,
    "TLE_LINE1": "1 49151U 21082X   25315.07685779  .00002218  00000+0  19360-3 0  9992",
    "TLE_LINE2": "2 49151  70.0000 193.5119 0002901 272.0792  88.0035 14.98340927230397",
    "COMMENT": "Grouped by shell and plane from TLE"
  },
  {
    "OBJECT_NAME": "STARLINK-3072",
    "OBJECT_ID": "21082Z",
    "EPOCH": "2025-11-11T01:38:39.536160",
    "MEAN_MOTION": 14.98322384,
    "ECCENTRICITY": 0.0002857,
    "INCLINATION": 69.9989,
    "RA_OF_ASC_NODE": 193.5394,
    "ARG_OF_PERICENTER": 269.0614,
    "MEAN_ANOMALY": 91.0218,
    "EPHEMERIS_TYPE": 0,
    "CLASSIFICATION_TYPE": "U",
    "NORAD_CAT_ID": 49153,
    "ELEMENT_SET_NO": 999,
    "REV_AT_EPOCH": 23040,
    "BSTAR": 0.0,
    "MEAN_MOTION_DOT": -5.8e-06,
    "MEAN_MOTION_DDOT": 0.0,
    "TLE_LINE1": "1 49153U 21082Z   25315.06851315 -.00000580  00000+0 -40842-4 0  9996",
    "TLE_LINE2": "2 49153  69.9989 193.5394 0002857 269.0614  91.0218 14.98322384230402",
    "COMMENT": "Grouped by shell and plane from TLE"
  },
  {
    "OBJECT_NAME": "STARLINK-3060",
    "OBJECT_ID": "21082AB",
    "EPOCH": "2025-11-11T01:32:39.164352",
    "MEAN_MOTION": 14.98329632,
    "ECCENTRICITY": 0.0002866,
    "INCLINATION": 69.9991,
    "RA_OF_ASC_NODE": 193.5424,
    "ARG_OF_PERICENTER": 269.5701,
    "MEAN_ANOMALY": 90.5129,
    "EPHEMERIS_TYPE": 0,
    "CLASSIFICATION_TYPE": "U",
    "NORAD_CAT_ID": 49155,
    "ELEMENT_SET_NO": 999,
    "REV_AT_EPOCH": 23027,
    "BSTAR": 5.3498e-05,
    "MEAN_MOTION_DOT": 5.45e-06,
    "MEAN_MOTION_DDOT": 0.0,
    "TLE_LINE1": "1 49155U 21082AB  25315.06434218  .00000545  00000+0  53498-4 0  9997",
    "TLE_LINE2": "2 49155  69.9991 193.5424 0002866 269.5701  90.5129 14.98329632230276",
    "COMMENT": "Grouped by shell and plane from TLE"
  },
  {
    "OBJECT_NAME": "STARLINK-3085",
    "OBJECT_ID": "21082AC",
    "EPOCH": "2025-11-11T01:02:36.246912",
    "MEAN_MOTION": 14.98333079,
    "ECCENTRICITY": 0.0002746,
    "INCLINATION": 69.9991,
    "RA_OF_ASC_NODE": 193.5956,
    "ARG_OF_PERICENTER": 273.3104,
    "MEAN_ANOMALY": 86.7741,
    "EPHEMERIS_TYPE": 0,
    "CLASSIFICATION_TYPE": "U",
    "NORAD_CAT_ID": 49156,
    "ELEMENT_SET_NO": 999,
    "REV_AT_EPOCH": 23027,
    "BSTAR": 8.869200000000001e-05,
    "MEAN_MOTION_DOT": 9.65e-06,
    "MEAN_MOTION_DDOT": 0.0,
    "TLE_LINE1": "1 49156U 21082AC  25315.04347508  .00000965  00000+0  88692-4 0  9991",
    "TLE_LINE2": "2 49156  69.9991 193.5956 0002746 273.3104  86.7741 14.98333079230271",
    "COMMENT": "Grouped by shell and plane from TLE"
  },
  {
    "OBJECT_NAME": "STARLINK-3069",
    "OBJECT_ID": "21082AY",
    "EPOCH": "2025-11-11T01:44:39.665184",
    "MEAN_MOTION": 14.98337004,
    "ECCENTRICITY": 0.000285,
    "INCLINATION": 69.9987,
    "RA_OF_ASC_NODE": 193.5261,
    "ARG_OF_PERICENTER": 272.4349,
    "MEAN_ANOMALY": 87.6484,
    "EPHEMERIS_TYPE": 0,
    "CLASSIFICATION_TYPE": "U",
    "NORAD_CAT_ID": 49176,
    "ELEMENT_SET_NO": 999,
    "REV_AT_EPOCH": 22919,
    "BSTAR": 8.657100000000001e-05,
    "MEAN_MOTION_DOT": 9.4e-06,
    "MEAN_MOTION_DDOT": 0.0,
    "TLE_LINE1": "1 49176U 21082AY  25315.07268131  .00000940  00000+0  86571-4 0  9997",
    "TLE_LINE2": "2 49176  69.9987 193.5261 0002850 272.4349  87.6484 14.98337004229199",
    "COMMENT": "Grouped by shell and plane from TLE"
  },
  {
    "OBJECT_NAME": "STARLINK-3103",
    "OBJECT_ID": "21082AZ",
    "EPOCH": "2025-11-11T02:14:42.173952",
    "MEAN_MOTION": 14.98338226,
    "ECCENTRICITY": 0.000277,
    "INCLINATION": 69.9995,
    "RA_OF_ASC_NODE": 193.4839,
    "ARG_OF_PERICENTER": 271.7669,
    "MEAN_ANOMALY": 88.3173,
    "EPHEMERIS_TYPE": 0,
    "CLASSIFICATION_TYPE": "U",
    "NORAD_CAT_ID": 49177,
    "ELEMENT_SET_NO": 999,
    "REV_AT_EPOCH": 23039,
    "BSTAR": 7.9814e-05,
    "MEAN_MOTION_DOT": 8.6e-06,
    "MEAN_MOTION_DDOT": 0.0,
    "TLE_LINE1": "1 49177U 21082AZ  25315.09354368  .00000860  00000+0  79814-4 0  9991",
    "TLE_LINE2": "2 49177  69.9995 193.4839 0002770 271.7669  88.3173 14.98338226230391",
    "COMMENT": "Grouped by shell and plane from TLE"
  }
]